[{"OBJECT_NAME":"SEEDS II (CO-66)","OBJECT_ID":"2008-021J","EPOCH":"2026-03-09T22:06:22.421376","MEAN_MOTION":15.29097236,"ECCENTRICITY":0.00014475,"INCLINATION":97.7519,"RA_OF_ASC_NODE":62.3611,"ARG_OF_PERICENTER":359.2618,"MEAN_ANOMALY":0.8619,"EPHEMERIS_TYPE":0,"CLASSIFICATION_TYPE":"U","NORAD_CAT_ID":32791,"ELEMENT_SET_NO":999,"REV_AT_EPOCH":97210,"BSTAR":0.00084213052,"MEAN_MOTION_DOT":0.00023758,"MEAN_MOTION_DDOT":0},{"OBJECT_NAME":"STARLINK-35627","OBJECT_ID":"2025-240AC","EPOCH":"2026-03-09T23:41:37.440960","MEAN_MOTION":15.30202636,"ECCENTRICITY":0.00013823,"INCLINATION":53.1592,"RA_OF_ASC_NODE":61.4385,"ARG_OF_PERICENTER":101.735,"MEAN_ANOMALY":258.3805,"EPHEMERIS_TYPE":0,"CLASSIFICATION_TYPE":"U","NORAD_CAT_ID":66172,"ELEMENT_SET_NO":999,"REV_AT_EPOCH":2203,"BSTAR":0.00097583491,"MEAN_MOTION_DOT":0.00028656,"MEAN_MOTION_DDOT":0}]
